{
    "links": {
        "self": "http://www.neowsapp.com/rest/v1/neo/3765608?api_key=iIulBulltgU6a56xZRHN4H3l9WmuAYTsLGpBGhQ2"
    },
    "id": "3765608",
    "neo_reference_id": "3765608",
    "name": "(2016 XQ1)",
    "designation": "2016 XQ1",
    "nasa_jpl_url": "http://ssd.jpl.nasa.gov/sbdb.cgi?sstr=3765608",
    "absolute_magnitude_h": 26.0,
    "estimated_diameter": {
        "kilometers": {
            "estimated_diameter_min": 0.0167708462,
            "estimated_diameter_max": 0.0375007522
        },
        "meters": {
            "estimated_diameter_min": 16.7708462163,
            "estimated_diameter_max": 37.5007521798
        },
        "miles": {
            "estimated_diameter_min": 0.0104209175,
            "estimated_diameter_max": 0.0233018799
        },
        "feet": {
            "estimated_diameter_min": 55.0224631002,
            "estimated_diameter_max": 123.0339677816
        }
    },
    "is_potentially_hazardous_asteroid": false,
    "close_approach_data": [
        {
            "close_approach_date": "2016-11-29",
            "close_approach_date_full": "2016-Nov-29 18:06",
            "epoch_date_close_approach": 1480442760000,
            "relative_velocity": {
                "kilometers_per_second": "8.7361721113",
                "kilometers_per_hour": "31450.2196005816",
                "miles_per_hour": "19541.9433957058"
            },
            "miss_distance": {
                "astronomical": "0.0210531432",
                "lunar": "8.1896727048",
                "kilometers": "3149505.379524984",
                "miles": "1957011.8949894192"
            },
            "orbiting_body": "Earth"
        },
        {
            "close_approach_date": "2018-12-03",
            "close_approach_date_full": "2018-Dec-03 07:40",
            "epoch_date_close_approach": 1543822800000,
            "relative_velocity": {
                "kilometers_per_second": "4.3427046588",
                "kilometers_per_hour": "15633.7367716027",
                "miles_per_hour": "9714.1960512217"
            },
            "miss_distance": {
                "astronomical": "1.6836095011",
                "lunar": "654.9240959279",
                "kilometers": "251864395.276322657",
                "miles": "156501278.1640083866"
            },
            "orbiting_body": "Juptr"
        }
    ],
    "orbital_data": {
        "orbit_id": "8",
        "orbit_determination_date": "2017-04-06 08:21:40",
        "first_observation_date": "2016-12-04",
        "last_observation_date": "2016-12-19",
        "data_arc_in_days": 15,
        "observations_used": 68,
        "orbit_uncertainty": "7",
        "minimum_orbit_intersection": ".018321",
        "jupiter_tisserand_invariant": "3.166",
        "epoch_osculation": "2459000.5",
        "eccentricity": ".6031341031326009",
        "semi_major_axis": "2.53495262080541",
        "inclination": ".7632414798475623",
        "ascending_node_longitude": "84.2653359664165",
        "orbital_period": "1474.189103582051",
        "perihelion_distance": "1.006036245372303",
        "perihelion_argument": "325.839661496702",
        "aphelion_distance": "4.063868996238518",
        "perihelion_time": "2459183.346019466216",
        "mean_anomaly": "315.348627358665",
        "mean_motion": ".2442020491979325",
        "equinox": "J2000",
        "orbit_class": {
            "orbit_class_type": "APO",
            "orbit_class_description": "Near-Earth asteroid orbits which cross the Earth’s orbit similar to that of 1862 Apollo",
            "orbit_class_range": "a (semi-major axis) > 1.0 AU; q (perihelion) < 1.017 AU"
        }
    },
    "is_sentry_object": false
}